STARLINK-36520          
1 67466U 26008X   26036.75002315 -.02112828  00000+0 -27615-1 0  9992
2 67466  43.0000  27.4473 0001203 273.8900 179.2385 15.60874729  4660
STARLINK-36425          
1 67467U 26008Y   26036.75002315 -.02393144  00000+0 -42906-1 0  9995
2 67467  43.0004  27.7364 0001342 259.0527  76.9455 15.52954609  4660
STARLINK-36414          
1 67468U 26008Z   26036.75002315 -.02118845  00000+0 -29666-1 0  9997
2 67468  42.9999  27.2242 0001034 264.4133 277.4910 15.59106047  4669
STARLINK-36441          
1 67469U 26008AA  26036.75002315 -.02114770  00000+0 -33474-1 0  9993
2 67469  43.0002  27.3252 0001059 270.6142 229.5868 15.55863831  4662
STARLINK-36454          
1 67470U 26008AB  26036.75002315 -.02116945  00000+0 -31409-1 0  9997
2 67470  43.0002  27.2578 0000937 264.5067 262.8181 15.57585269  4662
STARLINK-36334          
1 67471U 26008AC  26036.75002315 -.02121340  00000+0 -27465-1 0  9990
2 67471  43.0006  27.1584 0001047 259.4647 308.5462 15.61131913  4661
STARLINK-36269          
1 67472U 26008AD  26036.75002315 -.02121183  00000+0 -29660-1 0  9995
2 67472  43.0004  27.2009 0001029 257.4681 292.5558 15.59144019  4687
STARLINK-36408          
1 67473U 26008AE  26036.75002315 -.02116461  00000+0 -32611-1 0  9999
2 67473  43.0003  27.2783 0000948 271.4884 247.1884 15.56584474  4684
ALSAT-3A                
1 67474U 26009A   26036.82297443  .00011944  00000+0  50353-3 0  9998
2 67474  97.4680 111.4961 0012216 180.0971 180.0266 15.23404235  3279
TIANQI-37               
1 67476U 26010A   26036.80380903  .00000468  00000+0  31664-3 0  9997
2 67476  44.9830 307.9244 0012957  57.5124 302.6965 14.13527075  2971
TIANQI-38               
1 67477U 26010B   26036.80004370  .00000512  00000+0  33783-3 0  9993
2 67477  44.9792 307.8962 0011783  62.8078 297.3960 14.13904245  2971
