CCSDS_OMM_VERS = 2.0
CREATION_DATE  = 
ORIGINATOR     = 

OBJECT_NAME    = STARLINK-36520
OBJECT_ID      = 2026-008X
CENTER_NAME    = EARTH
REF_FRAME      = TEME
TIME_SYSTEM    = UTC
MEAN_ELEMENT_THEORY = SGP/SGP4

EPOCH          = 2026-02-05T18:00:02.000160
MEAN_MOTION    = 15.60874729
ECCENTRICITY   = .00012033
INCLINATION    = 43.0000
RA_OF_ASC_NODE = 27.4473
ARG_OF_PERICENTER = 273.8900
MEAN_ANOMALY   = 179.2385

EPHEMERIS_TYPE = 0
CLASSIFICATION_TYPE = U
NORAD_CAT_ID   = 67466
ELEMENT_SET_NO = 999
REV_AT_EPOCH   = 466
BSTAR          = -.27614922E-1
MEAN_MOTION_DOT = -.2112828E-1
MEAN_MOTION_DDOT = 0

CCSDS_OMM_VERS = 2.0
CREATION_DATE  = 
ORIGINATOR     = 

OBJECT_NAME    = STARLINK-36425
OBJECT_ID      = 2026-008Y
CENTER_NAME    = EARTH
REF_FRAME      = TEME
TIME_SYSTEM    = UTC
MEAN_ELEMENT_THEORY = SGP/SGP4

EPOCH          = 2026-02-05T18:00:02.000160
MEAN_MOTION    = 15.52954609
ECCENTRICITY   = .00013424
INCLINATION    = 43.0004
RA_OF_ASC_NODE = 27.7364
ARG_OF_PERICENTER = 259.0527
MEAN_ANOMALY   = 76.9455

EPHEMERIS_TYPE = 0
CLASSIFICATION_TYPE = U
NORAD_CAT_ID   = 67467
ELEMENT_SET_NO = 999
REV_AT_EPOCH   = 466
BSTAR          = -.42906061E-1
MEAN_MOTION_DOT = -.2393144E-1
MEAN_MOTION_DDOT = 0

CCSDS_OMM_VERS = 2.0
CREATION_DATE  = 
ORIGINATOR     = 

OBJECT_NAME    = STARLINK-36414
OBJECT_ID      = 2026-008Z
CENTER_NAME    = EARTH
REF_FRAME      = TEME
TIME_SYSTEM    = UTC
MEAN_ELEMENT_THEORY = SGP/SGP4

EPOCH          = 2026-02-05T18:00:02.000160
MEAN_MOTION    = 15.59106047
ECCENTRICITY   = .00010347
INCLINATION    = 42.9999
RA_OF_ASC_NODE = 27.2242
ARG_OF_PERICENTER = 264.4133
MEAN_ANOMALY   = 277.4910

EPHEMERIS_TYPE = 0
CLASSIFICATION_TYPE = U
NORAD_CAT_ID   = 67468
ELEMENT_SET_NO = 999
REV_AT_EPOCH   = 466
BSTAR          = -.29666454E-1
MEAN_MOTION_DOT = -.2118845E-1
MEAN_MOTION_DDOT = 0

CCSDS_OMM_VERS = 2.0
CREATION_DATE  = 
ORIGINATOR     = 

OBJECT_NAME    = STARLINK-36441
OBJECT_ID      = 2026-008AA
CENTER_NAME    = EARTH
REF_FRAME      = TEME
TIME_SYSTEM    = UTC
MEAN_ELEMENT_THEORY = SGP/SGP4

EPOCH          = 2026-02-05T18:00:02.000160
MEAN_MOTION    = 15.55863831
ECCENTRICITY   = .00010592
INCLINATION    = 43.0002
RA_OF_ASC_NODE = 27.3252
ARG_OF_PERICENTER = 270.6142
MEAN_ANOMALY   = 229.5868

EPHEMERIS_TYPE = 0
CLASSIFICATION_TYPE = U
NORAD_CAT_ID   = 67469
ELEMENT_SET_NO = 999
REV_AT_EPOCH   = 466
BSTAR          = -.33473735E-1
MEAN_MOTION_DOT = -.211477E-1
MEAN_MOTION_DDOT = 0

CCSDS_OMM_VERS = 2.0
CREATION_DATE  = 
ORIGINATOR     = 

OBJECT_NAME    = STARLINK-36454
OBJECT_ID      = 2026-008AB
CENTER_NAME    = EARTH
REF_FRAME      = TEME
TIME_SYSTEM    = UTC
MEAN_ELEMENT_THEORY = SGP/SGP4

EPOCH          = 2026-02-05T18:00:02.000160
MEAN_MOTION    = 15.57585269
ECCENTRICITY   = .00009371
INCLINATION    = 43.0002
RA_OF_ASC_NODE = 27.2578
ARG_OF_PERICENTER = 264.5067
MEAN_ANOMALY   = 262.8181

EPHEMERIS_TYPE = 0
CLASSIFICATION_TYPE = U
NORAD_CAT_ID   = 67470
ELEMENT_SET_NO = 999
REV_AT_EPOCH   = 466
BSTAR          = -.31408842E-1
MEAN_MOTION_DOT = -.2116945E-1
MEAN_MOTION_DDOT = 0

CCSDS_OMM_VERS = 2.0
CREATION_DATE  = 
ORIGINATOR     = 

OBJECT_NAME    = STARLINK-36334
OBJECT_ID      = 2026-008AC
CENTER_NAME    = EARTH
REF_FRAME      = TEME
TIME_SYSTEM    = UTC
MEAN_ELEMENT_THEORY = SGP/SGP4

EPOCH          = 2026-02-05T18:00:02.000160
MEAN_MOTION    = 15.61131913
ECCENTRICITY   = .00010479
INCLINATION    = 43.0006
RA_OF_ASC_NODE = 27.1584
ARG_OF_PERICENTER = 259.4647
MEAN_ANOMALY   = 308.5462

EPHEMERIS_TYPE = 0
CLASSIFICATION_TYPE = U
NORAD_CAT_ID   = 67471
ELEMENT_SET_NO = 999
REV_AT_EPOCH   = 466
BSTAR          = -.27464627E-1
MEAN_MOTION_DOT = -.212134E-1
MEAN_MOTION_DDOT = 0

CCSDS_OMM_VERS = 2.0
CREATION_DATE  = 
ORIGINATOR     = 

OBJECT_NAME    = STARLINK-36269
OBJECT_ID      = 2026-008AD
CENTER_NAME    = EARTH
REF_FRAME      = TEME
TIME_SYSTEM    = UTC
MEAN_ELEMENT_THEORY = SGP/SGP4

EPOCH          = 2026-02-05T18:00:02.000160
MEAN_MOTION    = 15.59144019
ECCENTRICITY   = .00010298
INCLINATION    = 43.0004
RA_OF_ASC_NODE = 27.2009
ARG_OF_PERICENTER = 257.4681
MEAN_ANOMALY   = 292.5558

EPHEMERIS_TYPE = 0
CLASSIFICATION_TYPE = U
NORAD_CAT_ID   = 67472
ELEMENT_SET_NO = 999
REV_AT_EPOCH   = 468
BSTAR          = -.29660015E-1
MEAN_MOTION_DOT = -.2121183E-1
MEAN_MOTION_DDOT = 0

CCSDS_OMM_VERS = 2.0
CREATION_DATE  = 
ORIGINATOR     = 

OBJECT_NAME    = STARLINK-36408
OBJECT_ID      = 2026-008AE
CENTER_NAME    = EARTH
REF_FRAME      = TEME
TIME_SYSTEM    = UTC
MEAN_ELEMENT_THEORY = SGP/SGP4

EPOCH          = 2026-02-05T18:00:02.000160
MEAN_MOTION    = 15.56584474
ECCENTRICITY   = .00009487
INCLINATION    = 43.0003
RA_OF_ASC_NODE = 27.2783
ARG_OF_PERICENTER = 271.4884
MEAN_ANOMALY   = 247.1884

EPHEMERIS_TYPE = 0
CLASSIFICATION_TYPE = U
NORAD_CAT_ID   = 67473
ELEMENT_SET_NO = 999
REV_AT_EPOCH   = 468
BSTAR          = -.32610949E-1
MEAN_MOTION_DOT = -.2116461E-1
MEAN_MOTION_DDOT = 0

CCSDS_OMM_VERS = 2.0
CREATION_DATE  = 
ORIGINATOR     = 

OBJECT_NAME    = ALSAT-3A
OBJECT_ID      = 2026-009A
CENTER_NAME    = EARTH
REF_FRAME      = TEME
TIME_SYSTEM    = UTC
MEAN_ELEMENT_THEORY = SGP/SGP4

EPOCH          = 2026-02-05T19:45:04.990752
MEAN_MOTION    = 15.23404235
ECCENTRICITY   = .0012216
INCLINATION    = 97.4680
RA_OF_ASC_NODE = 111.4961
ARG_OF_PERICENTER = 180.0971
MEAN_ANOMALY   = 180.0266

EPHEMERIS_TYPE = 0
CLASSIFICATION_TYPE = U
NORAD_CAT_ID   = 67474
ELEMENT_SET_NO = 999
REV_AT_EPOCH   = 327
BSTAR          = .50353E-3
MEAN_MOTION_DOT = .11944E-3
MEAN_MOTION_DDOT = 0

CCSDS_OMM_VERS = 2.0
CREATION_DATE  = 
ORIGINATOR     = 

OBJECT_NAME    = TIANQI-37
OBJECT_ID      = 2026-010A
CENTER_NAME    = EARTH
REF_FRAME      = TEME
TIME_SYSTEM    = UTC
MEAN_ELEMENT_THEORY = SGP/SGP4

EPOCH          = 2026-02-05T19:17:29.100192
MEAN_MOTION    = 14.13527075
ECCENTRICITY   = .0012957
INCLINATION    = 44.9830
RA_OF_ASC_NODE = 307.9244
ARG_OF_PERICENTER = 57.5124
MEAN_ANOMALY   = 302.6965

EPHEMERIS_TYPE = 0
CLASSIFICATION_TYPE = U
NORAD_CAT_ID   = 67476
ELEMENT_SET_NO = 999
REV_AT_EPOCH   = 297
BSTAR          = .31664E-3
MEAN_MOTION_DOT = .468E-5
MEAN_MOTION_DDOT = 0

CCSDS_OMM_VERS = 2.0
CREATION_DATE  = 
ORIGINATOR     = 

OBJECT_NAME    = TIANQI-38
OBJECT_ID      = 2026-010B
CENTER_NAME    = EARTH
REF_FRAME      = TEME
TIME_SYSTEM    = UTC
MEAN_ELEMENT_THEORY = SGP/SGP4

EPOCH          = 2026-02-05T19:12:03.775680
MEAN_MOTION    = 14.13904245
ECCENTRICITY   = .0011783
INCLINATION    = 44.9792
RA_OF_ASC_NODE = 307.8962
ARG_OF_PERICENTER = 62.8078
MEAN_ANOMALY   = 297.3960

EPHEMERIS_TYPE = 0
CLASSIFICATION_TYPE = U
NORAD_CAT_ID   = 67477
ELEMENT_SET_NO = 999
REV_AT_EPOCH   = 297
BSTAR          = .33783E-3
MEAN_MOTION_DOT = .512E-5
MEAN_MOTION_DDOT = 0

